{
"type": "FeatureCollection",
"name": "biomes",
"crs": { "type": "name", "properties": { "name": "urn:ogc:def:crs:OGC:1.3:CRS84" } },
"features": [
{ "type": "Feature", "properties": { "objectid_1": 1, "objectid": 1, "name": "Caatinga", "shape_leng": 72.91523426000001, "globalid": "{4C4F50CA-0806-46C5-88EE-7939AFC5B021}", "shape_Le_1": 8197497.4049654296, "shape_Area": 852975915635.17847 }, "geometry": { "type": "Polygon", "coordinates": [ [ [ -44.150262941168378, -15.193783437688495 ], [ -44.131374860698223, -14.326120555972386 ], [ -43.801762629825376, -14.99925762241932 ], [ -43.454300143028433, -14.894368448167683 ], [ -43.361118057608515, -14.613201766880831 ], [ -42.926802020448555, -14.59908156820466 ], [ -43.142104771379287, -14.384182584388574 ], [ -43.383624622111704, -14.490168957725269 ], [ -43.429881720157198, -13.367747202040935 ], [ -43.144382706700348, -12.562788057588792 ], [ -43.291657463197787, -11.569864036594868 ], [ -42.524543454757151, -10.332706353108463 ], [ -43.385676659884879, -11.11269369734636 ], [ -43.228036871246367, -11.07922688897615 ], [ -43.323428125952326, -11.312237462187701 ], [ -43.448066153858562, -11.00017928619876 ], [ -43.272581389593185, -10.515758231868512 ], [ -43.446542150300949, -10.143813053644637 ], [ -43.393779061302389, -9.733082751823908 ], [ -43.57178676111122, -9.648819456042297 ], [ -43.775186697983443, -10.087681849085884 ], [ -43.869694556625532, -9.758602242960732 ], [ -44.372633307072846, -9.80879405586515 ], [ -43.836345730884908, -9.417843766393636 ], [ -43.883252716919337, -8.940694186310029 ], [ -43.625167854194331, -9.100953284157876 ], [ -43.281650672903815, -8.945914916012329 ], [ -43.303854568936629, -8.51400336130005 ], [ -43.537809962681344, -8.526648069103732 ], [ -43.403753897623403, -7.77616834228325 ], [ -43.204619657590207, -7.504334889233997 ], [ -43.265956903667636, -7.231238660734076 ], [ -43.666846945312493, -7.46819022267544 ], [ -43.702560498003656, -8.239599444396326 ], [ -43.924112740331118, -8.552654105195632 ], [ -43.923308158856997, -8.128091229885051 ], [ -43.754563629339849, -7.421161559300304 ], [ -43.406676908658397, -6.983776941798983 ], [ -43.487177543687736, -6.552447817993532 ], [ -43.199117736088105, -6.563042865008178 ], [ -43.085364725633561, -7.052862863063418 ], [ -43.01544365570652, -6.696778888972711 ], [ -42.877760030936237, -6.649634106824215 ], [ -42.854545392766539, -6.241313327394002 ], [ -43.043959070009791, -6.002830392896843 ], [ -43.174154605371285, -6.291858920558765 ], [ -43.396607519263853, -5.930427472630999 ], [ -43.167182973589036, -5.839692741913109 ], [ -43.195334943003083, -5.589724411102815 ], [ -42.971311710213492, -5.526652075887413 ], [ -42.993415233886353, -5.194722165326248 ], [ -42.593567670959047, -5.321378897224992 ], [ -42.551461786656127, -4.91601062342813 ], [ -42.722320311649945, -4.727204711900143 ], [ -42.550251542169377, -4.149861578888384 ], [ -42.81336320923937, -4.219700862985842 ], [ -42.928194076762274, -4.025253159331776 ], [ -42.650506062024547, -3.757578119214714 ], [ -42.46562845565623, -3.839917830723536 ], [ -42.433025561283131, -3.657605385045216 ], [ -42.596796204412072, -3.738214624072679 ], [ -42.551621189110044, -3.475280126025328 ], [ -41.820084933242427, -3.240866743659716 ], [ -41.958101720693719, -2.825603208011825 ], [ -41.806968960562401, -3.001206163078439 ], [ -40.862707185279909, -2.880718554994262 ], [ -40.798803065261872, -3.047767263085102 ], [ -40.727706001813225, -2.845456896913139 ], [ -40.109961355211269, -2.846925150395123 ], [ -38.507481207046787, -3.728280974734732 ], [ -37.198248285108129, -4.933100470971137 ], [ -36.702741234124282, -5.10309965657303 ], [ -35.542203983375323, -5.154059558352079 ], [ -35.268570680860776, -5.801577397811095 ], [ -35.368405400915677, -6.315285099154102 ], [ -35.190204783408014, -6.833716849700072 ], [ -35.365922526640638, -6.944706315056517 ], [ -35.251429328646509, -7.122782096594301 ], [ -35.576249561314931, -7.433329165187289 ], [ -35.481016086705459, -7.587400355278977 ], [ -35.172107347948653, -7.562275249174748 ], [ -35.434408780446446, -7.709556231314224 ], [ -35.572519107671638, -8.046004465012258 ], [ -36.080927041418832, -8.173602247856314 ], [ -35.802179637178341, -8.186880169318737 ], [ -35.749767157940219, -8.360576315981803 ], [ -36.574362059927921, -8.76637787397441 ], [ -36.696901314309997, -9.006136018622232 ], [ -36.625206062713652, -9.143204500938207 ], [ -36.516025223730374, -8.995154118048776 ], [ -36.386104869289859, -9.085931863342157 ], [ -36.649822506612843, -9.9048434821435 ], [ -36.824153227690601, -10.018275728761934 ], [ -36.290942206179309, -10.074114270960065 ], [ -36.624834076642699, -10.241932838998208 ], [ -36.954864723910276, -10.072834948572892 ], [ -37.015540395815236, -9.855447591960324 ], [ -37.406751433430145, -10.130191442896759 ], [ -37.303338052557073, -10.649187896341312 ], [ -37.541127834125142, -10.513409160100377 ], [ -37.485218687796412, -10.749037508932274 ], [ -37.756179738597616, -11.026624801733561 ], [ -37.881923038358075, -11.729521535003164 ], [ -38.317102229843627, -11.735342065890048 ], [ -38.342402509964664, -12.015652460742437 ], [ -38.504866278628363, -12.093809779740962 ], [ -38.635440968616777, -11.799594481226494 ], [ -38.867945025323841, -12.417395163334378 ], [ -39.076736775397166, -11.949988411950631 ], [ -39.508433040422695, -11.913495971180012 ], [ -39.12543853428383, -12.469390351119014 ], [ -39.476475084321308, -12.540327909586427 ], [ -39.590714924167656, -12.825735583120975 ], [ -40.612890531414287, -13.380112664591071 ], [ -40.123755339436833, -13.713900847133981 ], [ -40.193781958714823, -14.094537889698442 ], [ -40.549881820630425, -14.565868167183844 ], [ -40.844589824289223, -14.597980459775053 ], [ -40.997286191105765, -14.415240183392724 ], [ -40.9539953462981, -14.656947337088479 ], [ -41.395694195705438, -15.034926400116776 ], [ -42.285095518820214, -15.139904223918217 ], [ -42.642387241200275, -14.927022495912668 ], [ -42.634201253342191, -14.515204159285759 ], [ -43.054810477893469, -15.0263779858694 ], [ -42.935409464600262, -15.247769108862096 ], [ -43.003350328739195, -15.644474313941156 ], [ -43.120607509911878, -15.54499320187815 ], [ -43.063337584810995, -15.857096930138438 ], [ -43.238658190043047, -15.94746191067639 ], [ -43.514413896265289, -15.172703143790978 ], [ -43.901540856628678, -16.087969261931686 ], [ -43.953951455692902, -15.601334878567842 ], [ -43.739425938824091, -15.445716614758744 ], [ -43.801487359971169, -15.103372660422577 ], [ -44.025001396216688, -15.054251092083808 ], [ -44.338875538570484, -15.57350487788368 ], [ -44.508872814565414, -15.540371188368082 ], [ -44.150262941168378, -15.193783437688495 ] ] ] } },
{ "type": "Feature", "properties": { "objectid_1": 2, "objectid": 2, "name": "Cerrado", "shape_leng": 213.92540093, "globalid": "{3F879BC2-07D1-4D08-B7B4-5F98FB89E841}", "shape_Le_1": 24346228.767236803, "shape_Area": 2202907826565.8813 }, "geometry": { "type": "Polygon", "coordinates": [ [ [ -59.842388452629592, -13.382720772750156 ], [ -60.059688893258816, -12.884783149149381 ], [ -59.81637800576744, -12.317169630283288 ], [ -60.092120387279074, -12.269074493687665 ], [ -59.993752334012143, -11.638329727168514 ], [ -59.053079027354094, -11.428488232259545 ], [ -58.433847577328763, -11.593239440958326 ], [ -58.288729193433156, -12.1621976151075 ], [ -57.914526443284437, -12.373473754295427 ], [ -57.84641576970904, -12.597875321982418 ], [ -58.0241569303899, -12.648190146895173 ], [ -57.999431662780545, -12.896742388070367 ], [ -57.659646803629151, -13.061778883588152 ], [ -57.458772482873151, -12.940437146104721 ], [ -57.506118127040608, -13.319652286745708 ], [ -57.287828117565745, -13.307132348643028 ], [ -57.371571409360996, -13.663039618064682 ], [ -57.128769728295168, -13.674085997726843 ], [ -57.069984282427903, -13.390157214833867 ], [ -56.427881424333258, -13.066659231058605 ], [ -56.51126747769959, -12.634694803880691 ], [ -56.349834326398422, -12.199908437934813 ], [ -56.085664714316643, -12.025767629336702 ], [ -55.897397988061847, -12.098105489563117 ], [ -55.877004465024484, -12.355027769290674 ], [ -55.557517082836881, -12.353020990100006 ], [ -55.612149592891157, -12.610535958022272 ], [ -55.142557240936583, -13.094291521168712 ], [ -54.710895803594603, -12.534477514048703 ], [ -54.613599200611461, -12.581005542334122 ], [ -55.066542737638912, -13.5084927813144 ], [ -54.524145395810159, -13.101209507797675 ], [ -54.598358555977612, -13.402587317010402 ], [ -54.297696533887034, -13.591988168675572 ], [ -54.048150636739628, -13.366948454375606 ], [ -53.950251922665935, -13.582353132084439 ], [ -52.604309744595412, -13.301862761027721 ], [ -51.955382510153143, -13.578234428336618 ], [ -51.734064335551068, -13.080967385253642 ], [ -51.836029472286008, -12.795617974782148 ], [ -51.618946166139047, -12.044544348429385 ], [ -51.721693886403422, -11.696151782174875 ], [ -51.47656982496953, -11.772170896129856 ], [ -51.515697362015935, -11.524193166977005 ], [ -51.186558132767729, -11.593048207022852 ], [ -51.894731294881787, -10.967647986760193 ], [ -51.816971912061085, -10.728407142414424 ], [ -51.602212322077015, -10.979468352279062 ], [ -51.459106079976209, -10.796113470184553 ], [ -51.297159609762119, -10.916264474818171 ], [ -51.176959467768583, -10.853391843420304 ], [ -51.286093044588121, -10.7498663627608 ], [ -51.091153535384841, -10.432195296691207 ], [ -51.398602041986074, -10.224824296231288 ], [ -51.25368212019125, -10.124163932281057 ], [ -50.462489452381078, -10.38809321876597 ], [ -50.057838914734873, -9.294099081676366 ], [ -49.192914837972758, -8.175031931298927 ], [ -48.77663698878591, -8.733236722570407 ], [ -48.765933537022789, -9.256130047255269 ], [ -48.495861697080308, -9.012959789032552 ], [ -48.716352226861666, -7.733825235443803 ], [ -48.673563117191321, -7.002801391126392 ], [ -48.286088610322608, -6.695791119116964 ], [ -48.44172446417479, -7.73461734993866 ], [ -47.927517572891915, -6.530341662893843 ], [ -48.152452222894041, -5.770329611194123 ], [ -47.874093366065054, -5.840398901949878 ], [ -47.879813465891807, -5.648319843692462 ], [ -48.090425635718745, -5.552045265022264 ], [ -48.14002397075113, -5.261714148169325 ], [ -47.823537677569767, -5.36746780424625 ], [ -47.458760535573958, -5.241520159404044 ], [ -47.141236257048099, -5.454432685093615 ], [ -46.736143051189437, -5.216097011227188 ], [ -46.732282051674119, -5.374477614160166 ], [ -46.555282618245243, -5.308625617929895 ], [ -46.165231557190403, -5.545608015330582 ], [ -45.592120618168259, -4.923557880363866 ], [ -45.623281056248615, -4.42235072667394 ], [ -45.216132990110147, -4.640658100943225 ], [ -44.856654714429624, -4.419543063970167 ], [ -44.592254706037039, -3.97654292186539 ], [ -44.670084179009464, -3.621522150700991 ], [ -44.368121246368823, -3.28747343714738 ], [ -44.314147883239109, -3.383193924173602 ], [ -44.165250692981743, -3.222461483215546 ], [ -44.113340866060852, -3.40047188276195 ], [ -43.968678739193003, -3.280590398429592 ], [ -44.040334829632862, -2.919459476636725 ], [ -43.57601919872517, -2.523121320345823 ], [ -43.589188639130917, -2.368576436555577 ], [ -43.441050016842176, -2.56590227718777 ], [ -43.35190251599321, -2.340799252665781 ], [ -42.386931881160855, -2.795070647001271 ], [ -41.846520962360316, -2.721809490022045 ], [ -41.522197068649334, -2.904980901579965 ], [ -41.806968960562401, -3.001206163078439 ], [ -41.982072665772471, -2.837846670686546 ], [ -41.788121562994824, -3.203784505197937 ], [ -42.195465788851998, -3.301192535332293 ], [ -42.338555870260834, -3.490803817239433 ], [ -42.284312620880414, -3.355153135430527 ], [ -42.403515110089089, -3.332007631948585 ], [ -42.598628902338959, -3.70950558506524 ], [ -42.433025561283131, -3.657605385045216 ], [ -42.46562845565623, -3.839917830723536 ], [ -42.650506062024547, -3.757578119214714 ], [ -42.888950607636893, -3.925970104050081 ], [ -42.81336320923937, -4.219700862985842 ], [ -42.550251542169377, -4.149861578888384 ], [ -42.722320311649945, -4.727204711900143 ], [ -42.551461786656127, -4.91601062342813 ], [ -42.593567670959047, -5.321378897224992 ], [ -42.993415233886353, -5.194722165326248 ], [ -42.971311710213492, -5.526652075887413 ], [ -43.195334943003083, -5.589724411102815 ], [ -43.167182973589036, -5.839692741913109 ], [ -43.39776396274992, -5.946296091561193 ], [ -43.174154605371285, -6.291858920558765 ], [ -43.043959070009791, -6.002830392896843 ], [ -42.854545392766539, -6.241313327394002 ], [ -42.877760030936237, -6.649634106824215 ], [ -43.01544365570652, -6.696778888972711 ], [ -43.085364725633561, -7.052862863063418 ], [ -43.199117736088105, -6.563042865008178 ], [ -43.487177543687736, -6.552447817993532 ], [ -43.406676908658397, -6.983776941798983 ], [ -43.754563629339849, -7.421161559300304 ], [ -43.957195656662797, -8.507285223615424 ], [ -43.702560498003656, -8.239599444396326 ], [ -43.666846945312493, -7.46819022267544 ], [ -43.265956903667636, -7.231238660734076 ], [ -43.204619657590207, -7.504334889233997 ], [ -43.403753897623403, -7.77616834228325 ], [ -43.537809962681344, -8.526648069103732 ], [ -43.303854568936629, -8.51400336130005 ], [ -43.281650672903815, -8.945914916012329 ], [ -43.625167854194331, -9.100953284157876 ], [ -43.883252716919337, -8.940694186310029 ], [ -43.836345730884908, -9.417843766393636 ], [ -44.372633307072846, -9.80879405586515 ], [ -43.869694556625532, -9.758602242960732 ], [ -43.775186697983443, -10.087681849085884 ], [ -43.57178676111122, -9.648819456042297 ], [ -43.393779061302389, -9.733082751823908 ], [ -43.446542150300949, -10.143813053644637 ], [ -43.272581389593185, -10.515758231868512 ], [ -43.448066153858562, -11.00017928619876 ], [ -43.323428125952326, -11.312237462187701 ], [ -43.228036871246367, -11.07922688897615 ], [ -43.385676659884879, -11.11269369734636 ], [ -42.524543454757151, -10.332706353108463 ], [ -43.291657463197787, -11.569864036594868 ], [ -43.144382706700348, -12.562788057588792 ], [ -43.429881720157198, -13.367747202040935 ], [ -43.383624622111704, -14.490168957725269 ], [ -43.142104771379287, -14.384182584388574 ], [ -42.926802020448555, -14.59908156820466 ], [ -43.361118057608515, -14.613201766880831 ], [ -43.454300143028433, -14.894368448167683 ], [ -43.801762629825376, -14.99925762241932 ], [ -43.873199339994741, -14.638570971607027 ], [ -44.142528633421684, -14.332036740742652 ], [ -44.111342367878599, -15.122722696708859 ], [ -44.508872814565414, -15.540371188368082 ], [ -44.338875538570484, -15.57350487788368 ], [ -43.895796321727886, -15.023763242230681 ], [ -43.731233953813181, -15.397691727971276 ], [ -43.951500511136338, -15.589665275165153 ], [ -43.921013639737488, -16.088875562717718 ], [ -43.514413896265289, -15.172703143790978 ], [ -43.163281186966529, -15.958269194572086 ], [ -43.116693932901292, -15.533270267571826 ], [ -43.007643887725074, -15.649009750579671 ], [ -42.957607381446543, -15.454890096178742 ], [ -43.054810477893469, -15.0263779858694 ], [ -42.603302443300144, -14.52314285269061 ], [ -42.791927458114429, -15.513274753573699 ], [ -42.667973774876472, -16.123293358909208 ], [ -42.508084549969276, -15.83970902623445 ], [ -42.696594195948265, -15.637779376886281 ], [ -42.63106225497355, -15.039934863145691 ], [ -42.461379665110833, -15.5163947231876 ], [ -42.36219316217845, -15.55875300694402 ], [ -42.300190648954427, -15.292353527164783 ], [ -41.973250904255217, -15.664702972425205 ], [ -42.096982405377325, -15.799260743634997 ], [ -41.774485502596207, -15.872178944101053 ], [ -42.041063787212245, -16.021577124801414 ], [ -42.2808191212495, -15.763047991399905 ], [ -42.423735914046787, -15.910121312799951 ], [ -42.306352241997232, -16.599994171749358 ], [ -42.121397720077667, -16.663634872700374 ], [ -42.384889251443624, -16.769540530227619 ], [ -42.250971357157866, -16.85541348035288 ], [ -42.374487178170142, -17.267253418606145 ], [ -42.247058329017904, -17.676475892407652 ], [ -42.475836034687561, -17.76172736981049 ], [ -42.634600666775398, -17.571144644336513 ], [ -42.866417763818376, -17.844039045834744 ], [ -42.765495347447803, -17.996090748357148 ], [ -43.131508908142798, -17.824479301417089 ], [ -43.204723333055469, -18.154994813264288 ], [ -43.69802787935437, -18.585986043329687 ], [ -43.661739923209275, -18.914042744375219 ], [ -43.292452171288623, -19.307125650746865 ], [ -43.429763630324892, -19.839391442663757 ], [ -44.365844971134415, -19.89587179800451 ], [ -44.740446355876998, -19.542473857751975 ], [ -44.77951346325424, -19.657198237926192 ], [ -45.043403351634637, -19.600666664189454 ], [ -44.599066270612092, -20.003332450708637 ], [ -44.619146409176054, -20.294468054160596 ], [ -44.985944571016631, -20.503649748394931 ], [ -45.022201352028084, -20.025253616299793 ], [ -45.521510561079552, -20.203909601114209 ], [ -45.258799439320015, -20.719919281129702 ], [ -45.452427588769858, -20.977414998634671 ], [ -45.329247550824256, -21.139458039847167 ], [ -45.500246789720798, -21.057423581624342 ], [ -45.601282049762439, -21.19151635305349 ], [ -45.757287501065207, -21.213304155845425 ], [ -45.600906607872574, -21.098035814598202 ], [ -46.486579240736958, -20.895501529302358 ], [ -46.914738623791557, -20.559756291214825 ], [ -46.771599642590218, -21.023957088231768 ], [ -46.953532724170799, -21.391979618102873 ], [ -46.773278761841205, -22.492726637043429 ], [ -47.097827168796215, -22.809678692367793 ], [ -47.500334538176922, -22.707702527638343 ], [ -47.167614143607537, -22.419731126238119 ], [ -47.309911987292573, -22.330076156713332 ], [ -47.132506224301146, -21.617044899927311 ], [ -47.203585358275021, -21.409881317803229 ], [ -47.072159103126509, -21.28507822287861 ], [ -47.271539682770175, -21.331668446270001 ], [ -47.29392026484296, -21.131457028345569 ], [ -47.235966555622532, -21.71302108768926 ], [ -47.470483384741705, -21.732258217327054 ], [ -47.519308643115316, -21.593678824197852 ], [ -47.634526756390898, -21.731120961345656 ], [ -47.41922172912922, -22.156516487092428 ], [ -47.797354543967288, -22.638004885011178 ], [ -47.658465468120617, -22.867095587592395 ], [ -47.922094317757555, -22.856069887346152 ], [ -48.200558151710652, -23.109785683363636 ], [ -48.164276022038479, -22.958421904631525 ], [ -48.3471360023972, -22.957574763902503 ], [ -48.650973663340253, -23.171695940378982 ], [ -48.31613697091214, -23.193312536597315 ], [ -48.329876672640026, -23.454829064796968 ], [ -48.693742307591791, -23.393808339628738 ], [ -48.470734270786252, -23.565626594938148 ], [ -47.926029623218255, -23.467048728050823 ], [ -47.911267838123017, -23.633465121822606 ], [ -48.88191570877003, -23.703484957903857 ], [ -48.380790572439714, -23.955917467674062 ], [ -48.834202521599025, -23.93195863572787 ], [ -48.864706687363729, -24.128712118858672 ], [ -49.207475857686823, -24.373299878983033 ], [ -49.438720853657969, -24.256597798398808 ], [ -49.972169572986708, -24.44916607127621 ], [ -50.148484518016858, -24.685020100682991 ], [ -50.418053476571707, -24.581266694314806 ], [ -50.459068118908505, -24.414829705881235 ], [ -50.165642021041613, -24.371727222856055 ], [ -50.305393243304124, -24.278170989747668 ], [ -49.962339693311534, -24.074729815605416 ], [ -49.661244157739567, -24.217101016684335 ], [ -49.567554358894107, -24.062883641920486 ], [ -49.688732072732641, -23.924208566936517 ], [ -49.3004413871395, -23.864680195131861 ], [ -49.260701839568135, -22.967340292754916 ], [ -49.512788872126642, -22.712986300322886 ], [ -50.511153652705701, -22.71878607482083 ], [ -50.944777054645641, -22.49355339133378 ], [ -51.279665087588867, -22.570783263205005 ], [ -51.353455117901277, -22.273638543334407 ], [ -51.023803438411051, -22.038589512006581 ], [ -51.022809740010075, -22.29519325785164 ], [ -49.621644197583564, -22.553572640926621 ], [ -49.492034837199455, -22.339863854131501 ], [ -49.426235253965615, -22.476486057193839 ], [ -49.211652456022712, -22.451274172348846 ], [ -49.419062271998939, -22.173714724595474 ], [ -49.052862912753731, -21.900704684719638 ], [ -48.6507647583243, -22.699919196249454 ], [ -48.363200833337913, -22.392716067331964 ], [ -49.155764164083308, -21.674378013107617 ], [ -48.958371402551499, -21.234314222927004 ], [ -48.575912548341826, -21.538455747748884 ], [ -48.457819767766559, -21.132385224714685 ], [ -48.741655862190285, -20.476922851047739 ], [ -49.016439565223969, -20.412072964806651 ], [ -49.028770531618243, -20.188882752217431 ], [ -49.129878319839278, -20.488281174676075 ], [ -48.956535724912811, -20.612246447690829 ], [ -49.12353109173965, -20.892522854710091 ], [ -49.312081116092337, -20.657726700212439 ], [ -49.414875380766532, -20.831570745869517 ], [ -50.154892781250155, -20.517000852742829 ], [ -50.260722864697776, -20.669787523744318 ], [ -50.381996320081001, -20.559374414410147 ], [ -49.801373011086262, -20.087111466038131 ], [ -49.244297668232228, -20.535346555135664 ], [ -49.267748502236188, -19.763710868352188 ], [ -49.515535851095194, -19.848804889386681 ], [ -49.474440487943603, -19.619547603623015 ], [ -49.658990359251867, -19.510024290072117 ], [ -49.781738303054233, -19.546561303631943 ], [ -49.697068132243764, -19.804545182249282 ], [ -49.8712103445541, -19.839009972851432 ], [ -50.333334527241334, -19.673898326118177 ], [ -50.899768934645309, -19.724223285161521 ], [ -50.588404784908327, -19.540893760298541 ], [ -50.541976323340911, -19.177302895203983 ], [ -50.25888630311686, -19.071062971289496 ], [ -50.352556010242658, -19.010139451709499 ], [ -50.080007783658118, -18.691349728800677 ], [ -49.841230004397872, -19.024114186407747 ], [ -49.844811921608951, -18.821247222856368 ], [ -49.70342252261117, -18.976963131747326 ], [ -49.803615901331455, -18.742225789205019 ], [ -49.678387894082597, -18.60599174774789 ], [ -49.408769252404305, -18.803928573744347 ], [ -49.670912762871779, -18.887396248318108 ], [ -49.145047809817783, -18.949972547632605 ], [ -49.325678506712904, -18.830258056575133 ], [ -48.851540054193244, -18.415405326653541 ], [ -48.863635805713521, -18.623092512612871 ], [ -48.644126999790409, -18.501163575698961 ], [ -48.478016293855383, -18.693414992074896 ], [ -48.327792671910728, -18.607203506392523 ], [ -47.954283475958555, -18.96854521885551 ], [ -48.00770868979685, -18.725601400700128 ], [ -48.467842910093637, -18.446941950243346 ], [ -48.244032498076336, -18.350304927347317 ], [ -47.746987676853145, -18.586973014312083 ], [ -47.837714370157506, -18.4231447860986 ], [ -47.655646456842689, -18.454272298238756 ], [ -47.751276346308934, -18.392686793259578 ], [ -47.608608209877254, -18.306695791988282 ], [ -47.616015026007332, -18.224670127205393 ], [ -47.994138286364034, -18.455188546409417 ], [ -48.251116515388851, -18.318460245052144 ], [ -48.334079835955521, -18.340321294233654 ], [ -48.275896529924871, -18.142453787693871 ], [ -48.445133088282716, -18.233635322823179 ], [ -48.781479847805095, -17.93909388975354 ], [ -49.018717452934318, -18.063396505293529 ], [ -48.921239684012853, -18.162249307143576 ], [ -49.054834815413685, -18.270091940029829 ], [ -49.19990417465096, -18.015630526758631 ], [ -49.169233738812011, -18.37400778735136 ], [ -49.38549009363765, -18.604608424887502 ], [ -49.600772133909516, -18.517597360246722 ], [ -49.463039255410514, -18.327386633878568 ], [ -49.587546228998264, -18.053990217381031 ], [ -49.799334553145229, -18.491103756668831 ], [ -50.044089113248248, -18.44461128441926 ], [ -50.183294735638093, -18.0736473286094 ], [ -50.677130690224793, -18.447140197690302 ], [ -50.555351362064052, -18.668706475425093 ], [ -50.960980174037815, -18.530734486935469 ], [ -50.664106734674256, -18.841023508151405 ], [ -50.867501711947781, -18.826747814280907 ], [ -51.134851184963871, -18.502924291890185 ], [ -50.797494271701126, -19.084053395977005 ], [ -51.129466454978768, -19.642804630583431 ], [ -51.116133932619725, -20.169722764202955 ], [ -51.259125661979681, -20.092870240930772 ], [ -51.19698755165679, -20.196262394183172 ], [ -51.388059874647375, -20.31685958913792 ], [ -51.550300641033367, -20.214960295372254 ], [ -51.415994261319824, -20.371901175858781 ], [ -51.690858692354837, -20.687336848039337 ], [ -52.01043295061357, -20.451582826617667 ], [ -51.877596676438905, -20.61538509486093 ], [ -52.009265998635314, -20.663664109944143 ], [ -51.686121663859268, -20.755500206309915 ], [ -52.55564597815706, -22.065799105959957 ], [ -53.245321446962187, -22.199026089336652 ], [ -54.475858118697282, -21.577795486055066 ], [ -54.607118885305844, -21.928471937149791 ], [ -55.073574199914034, -21.873846094847408 ], [ -54.748419367260176, -22.398353407911447 ], [ -55.116740745734155, -22.202416073750232 ], [ -55.547391837994596, -22.567699161953236 ], [ -55.458854174645936, -22.726167007955155 ], [ -55.56952694822948, -22.757678460622778 ], [ -55.869417878938066, -22.281230433693676 ], [ -56.41496245399167, -22.076021323599658 ], [ -56.844130205834169, -22.282531181181497 ], [ -57.700511981574003, -22.085073249670437 ], [ -57.688830427061568, -21.434841824950023 ], [ -57.508736872400682, -21.399745834848133 ], [ -57.539012204024857, -21.193867450309067 ], [ -57.29324697005692, -20.898845134793856 ], [ -57.537731646604179, -20.762287835187593 ], [ -57.174507709700912, -20.386381037133859 ], [ -57.174510516037863, -20.255744929122365 ], [ -57.385597367339017, -20.236713296995045 ], [ -57.233600653381508, -19.787788843737687 ], [ -56.819558668716006, -19.894554336000237 ], [ -56.571289394368335, -20.186863868112024 ], [ -56.744576044015531, -20.30003634294669 ], [ -56.568067159003746, -20.275248864636861 ], [ -56.518621705554622, -20.447092134605949 ], [ -56.349367187179318, -20.123779176321818 ], [ -56.407291579880457, -19.878734053823763 ], [ -56.168683364816594, -19.913084274334 ], [ -56.244294157140743, -20.153333006924111 ], [ -56.083122592555362, -20.11734990000328 ], [ -56.051429680785304, -20.348402518325251 ], [ -55.768474749213659, -20.442739969726528 ], [ -55.823501484930368, -20.265221840804781 ], [ -55.199264394868159, -19.494883036142848 ], [ -55.021482649201062, -18.424033976166015 ], [ -55.216587591248768, -18.254888269764756 ], [ -54.939726464051944, -18.376995066840038 ], [ -54.922312824390239, -18.17401768515828 ], [ -55.12084109776368, -17.482327263982221 ], [ -54.954035533278272, -17.367708127857739 ], [ -54.944243413387746, -17.101699489678722 ], [ -55.13413121784469, -17.069372869753572 ], [ -55.14388233143913, -16.886426131806978 ], [ -54.958762019145666, -16.751504774748742 ], [ -55.048843922400351, -16.469369544980363 ], [ -55.416688106812245, -16.435853332728325 ], [ -55.416791547817219, -16.080533516108748 ], [ -55.59450983020443, -15.985294193430972 ], [ -55.776578414560774, -16.11768599333935 ], [ -56.014356292553003, -15.634273677744703 ], [ -56.775783430747573, -16.274648388882724 ], [ -57.143263792977834, -15.981168738747492 ], [ -57.349662289200467, -16.25631421283045 ], [ -57.658584002324908, -16.015855507934493 ], [ -57.411883005003617, -15.874718624644311 ], [ -57.546167369704484, -15.815493435896739 ], [ -57.510307108652697, -15.577025530058284 ], [ -57.316118555094327, -15.350132408040961 ], [ -56.999654857237296, -15.301390811032153 ], [ -57.086361101860042, -14.920925699798211 ], [ -56.927478612603551, -15.086868356645224 ], [ -56.758921937880309, -14.943411961219546 ], [ -56.659856490118962, -14.241133249234133 ], [ -56.848264691149538, -14.000686613934812 ], [ -57.647498824058239, -14.15794426499648 ], [ -57.996357100567231, -14.426594245066173 ], [ -58.299454204763094, -15.009591303767984 ], [ -58.895810565423091, -15.069536493268719 ], [ -59.175704445443266, -14.879191546827466 ], [ -59.798768713036843, -13.87632965673863 ], [ -59.440244527239791, -13.626923753705762 ], [ -59.708550890188086, -13.33132921094287 ], [ -59.842388452629592, -13.382720772750156 ] ] ] } },
{ "type": "Feature", "properties": { "objectid_1": 3, "objectid": 3, "name": "Pantanal", "shape_leng": 29.41660337, "globalid": "{FACCEDEF-DD37-4E36-9964-6F65F9055F9F}", "shape_Le_1": 3379030.1905228854, "shape_Area": 168492441192.6915 }, "geometry": { "type": "Polygon", "coordinates": [ [ [ -59.188860171269582, -16.305809423428446 ], [ -58.762750210992365, -15.877078391983146 ], [ -58.762857108714549, -15.650587862793024 ], [ -58.287058513854276, -16.019767307361434 ], [ -57.840354069325812, -15.53338349369432 ], [ -57.726229681858108, -16.027883248288465 ], [ -57.496256286205941, -16.197074139149642 ], [ -57.288696739936476, -16.244179522758561 ], [ -57.143263792977834, -15.981168738747492 ], [ -56.817755591837297, -16.279214690365436 ], [ -56.014356292553003, -15.634273677744703 ], [ -55.776578414560774, -16.11768599333935 ], [ -55.59450983020443, -15.985294193430972 ], [ -55.416791547817219, -16.080533516108748 ], [ -55.416688106812245, -16.435853332728325 ], [ -55.048843922400351, -16.469369544980363 ], [ -54.958762019145666, -16.751504774748742 ], [ -55.14388233143913, -16.886426131806978 ], [ -55.13413121784469, -17.069372869753572 ], [ -54.944243413387746, -17.101699489678722 ], [ -54.954035533278272, -17.367708127857739 ], [ -55.12084109776368, -17.482327263982221 ], [ -54.922312824390239, -18.17401768515828 ], [ -54.939726464051944, -18.376995066840038 ], [ -55.216587591248768, -18.254888269764756 ], [ -55.021482649201062, -18.424033976166015 ], [ -55.199264394868159, -19.494883036142848 ], [ -55.823501484930368, -20.265221840804781 ], [ -55.768474749213659, -20.442739969726528 ], [ -56.051429680785304, -20.348402518325251 ], [ -56.083122592555362, -20.11734990000328 ], [ -56.244294157140743, -20.153333006924111 ], [ -56.168683364816594, -19.913084274334 ], [ -56.407291579880457, -19.878734053823763 ], [ -56.349367187179318, -20.123779176321818 ], [ -56.518621705554622, -20.447092134605949 ], [ -56.568067159003746, -20.275248864636861 ], [ -56.744576044015531, -20.30003634294669 ], [ -56.571289394368335, -20.186863868112024 ], [ -56.819558668716006, -19.894554336000237 ], [ -57.233600653381508, -19.787788843737687 ], [ -57.385597367339017, -20.236713296995045 ], [ -57.174510516037863, -20.255744929122365 ], [ -57.174507709700912, -20.386381037133859 ], [ -57.535225087348373, -20.754424888314112 ], [ -57.29324697005692, -20.898845134793856 ], [ -57.539012204024857, -21.193867450309067 ], [ -57.508736872400682, -21.399745834848133 ], [ -57.688830427061568, -21.434841824950023 ], [ -57.76269318138614, -22.118342282089525 ], [ -57.972107735242574, -22.007371852882834 ], [ -57.831469699724849, -20.981645785611057 ], [ -58.157806764699941, -20.251472212290764 ], [ -57.871155401379767, -19.963385912970086 ], [ -58.14475279284251, -19.757595204296976 ], [ -57.688625280596746, -19.021745240959735 ], [ -57.762147231170523, -18.841457575663711 ], [ -57.471925193055057, -18.212541704944687 ], [ -57.751469911399013, -17.564374941666138 ], [ -58.402447080658398, -17.162537726939938 ], [ -58.482143301300241, -16.766564038096881 ], [ -58.326935190152085, -16.281547091421864 ], [ -59.188860171269582, -16.305809423428446 ] ] ] } },
{ "type": "Feature", "properties": { "objectid_1": 4, "objectid": 4, "name": "Pampa", "shape_leng": 30.9117493, "globalid": "{3F1733F6-FB07-4502-BC65-B22161DB5336}", "shape_Le_1": 3690152.4463589643, "shape_Area": 240218195672.61746 }, "geometry": { "type": "Polygon", "coordinates": [ [ [ -56.056118294578617, -31.04781826819983 ], [ -56.207823836704769, -30.598835815053043 ], [ -56.835434915430824, -30.088935448720434 ], [ -57.240106894964541, -30.279148005323279 ], [ -57.644336942006035, -30.19700142324616 ], [ -55.498727051968409, -28.086485733907576 ], [ -54.980641909923499, -28.162957804754242 ], [ -54.845325849881739, -28.358326267922521 ], [ -54.712063442784057, -28.196014577132008 ], [ -54.557984000111688, -28.470720972862082 ], [ -54.269079403344136, -28.398490284320516 ], [ -54.106485299912492, -28.625422674866996 ], [ -53.790300236100407, -28.541241861701451 ], [ -53.226813431112333, -29.017348240850549 ], [ -53.674468386636178, -29.544244382124194 ], [ -54.466121810237041, -29.233251163015375 ], [ -54.957267351870307, -29.37209950262196 ], [ -55.117708863709112, -29.275957998000692 ], [ -55.025772004969738, -29.469717063762971 ], [ -54.653287521753747, -29.525818386708508 ], [ -54.579628021143677, -29.410874877623502 ], [ -54.420523991168459, -29.567083451737595 ], [ -52.414858492620453, -29.898808007895362 ], [ -52.38569630927892, -29.762332301084999 ], [ -52.113209513086773, -29.817589547235066 ], [ -52.163469432173088, -29.656521799735842 ], [ -51.83588895780926, -29.818403238647353 ], [ -51.794177363847503, -29.602680314752384 ], [ -51.092080674911493, -29.623056999861458 ], [ -50.87898728191302, -29.934235081087682 ], [ -50.543838468042821, -29.817988268272622 ], [ -50.364772027314878, -29.951732085737493 ], [ -49.715899289169322, -29.274139544356803 ], [ -50.746246487873272, -31.053229079228409 ], [ -52.183811974021438, -32.149601051086535 ], [ -52.661088682003033, -33.094477505708078 ], [ -53.425326751129553, -33.754729430893192 ], [ -53.55323714488479, -33.210120208361197 ], [ -53.077164349165514, -32.721864872801916 ], [ -53.591371008683033, -32.424764350245574 ], [ -53.738492774002765, -32.076631669847394 ], [ -54.124805592122485, -31.936551996182352 ], [ -54.610127259649055, -31.46341746081022 ], [ -55.203834149871298, -31.267117724683146 ], [ -55.567476619950277, -30.870155648814531 ], [ -56.056118294578617, -31.04781826819983 ] ] ] } },
{ "type": "Feature", "properties": { "objectid_1": 5, "objectid": 5, "name": "Amazônia", "shape_leng": 178.76846875000001, "globalid": "{6263CBF9-F070-468A-BCF0-B83AFC4FA67A}", "shape_Le_1": 20004125.809594322, "shape_Area": 4267260801453.166 }, "geometry": { "type": "MultiPolygon", "coordinates": [ [ [ [ -73.087752106315051, -6.412810363839093 ], [ -73.223352793063015, -6.130533839232244 ], [ -72.78100713778646, -5.108318020387006 ], [ -71.881491276849289, -4.524779098935937 ], [ -71.021407227616606, -4.413067142348012 ], [ -70.781955257345729, -4.190659795953575 ], [ -70.405762516958788, -4.14294108940763 ], [ -70.192520832768167, -4.372557153990184 ], [ -69.952045090297233, -4.315643949278338 ], [ -69.385834041802127, -1.110574266261535 ], [ -69.607071395876403, -0.541929811612357 ], [ -70.034818800761911, -0.193951856156777 ], [ -70.032875478002737, 0.566882020053686 ], [ -69.108480509370537, 0.642975550263335 ], [ -69.23033340955304, 1.025657425113868 ], [ -69.803293274402265, 1.049643501760154 ], [ -69.828463591657894, 1.659148483774899 ], [ -68.186936753025947, 1.696188885835688 ], [ -68.199036753577516, 1.966305600266874 ], [ -67.943449975401947, 1.775818738617498 ], [ -67.383658711033647, 2.18491641899309 ], [ -67.093279721966709, 1.690861724740533 ], [ -67.033574704879058, 1.142276386102097 ], [ -66.835706481237025, 1.203026944632297 ], [ -66.286858616729091, 0.730961658600334 ], [ -65.529387366194982, 0.946528720784045 ], [ -65.507902879669246, 0.640223514757554 ], [ -65.109248659426598, 1.097436666062419 ], [ -64.334812015981157, 1.514828473204318 ], [ -64.318228938868202, 1.318644827012912 ], [ -63.986671513147108, 1.939386641663265 ], [ -63.339145019032422, 2.201362206642177 ], [ -63.364134563811838, 2.414905804391561 ], [ -64.025778017937753, 2.470005321041929 ], [ -63.944128728714205, 2.660803494694937 ], [ -64.211107603556428, 3.113055453399018 ], [ -64.156892567564157, 3.540127734769065 ], [ -64.820546747739968, 4.271382828258073 ], [ -64.536479142196171, 4.077785843012613 ], [ -64.154704241887629, 4.089415630791271 ], [ -63.95622236739694, 3.831833090232228 ], [ -63.206301550250643, 3.937364104078122 ], [ -62.931399476211958, 3.578952005791688 ], [ -62.707175074697645, 3.694311372274757 ], [ -62.747812075170479, 4.003409546069745 ], [ -62.532756062702191, 3.999165910914705 ], [ -62.408061591850036, 4.178464712044872 ], [ -62.12988184291904, 4.054473196180552 ], [ -61.56844444633532, 4.211687834771337 ], [ -61.4428889268086, 4.424734073990224 ], [ -60.969951911692625, 4.520407195126507 ], [ -60.668384599798046, 4.778649084591847 ], [ -60.570235252166832, 4.96418831717907 ], [ -60.6972980800616, 5.177710893638128 ], [ -60.150104181078355, 5.250471752429728 ], [ -59.998873384206824, 5.064281971424144 ], [ -60.125452709171299, 4.513729304294699 ], [ -59.681548898186684, 4.362872015750101 ], [ -59.495970619371491, 3.965854520170597 ], [ -59.833736057679381, 3.55280233306447 ], [ -59.96703431025184, 2.729217003736225 ], [ -59.87593843092526, 2.362890987309631 ], [ -59.708788464038022, 2.274591018424031 ], [ -59.633561285577862, 1.717919606269808 ], [ -58.866863227656474, 1.18759915942984 ], [ -58.507571464686812, 1.256254845917836 ], [ -58.528577158149261, 1.458568230196019 ], [ -58.330659164247251, 1.573977642049366 ], [ -57.984502917704944, 1.476636165859407 ], [ -57.931239717723088, 1.636597092974085 ], [ -57.554078384152405, 1.683007024981822 ], [ -57.289385261770825, 1.959881178823441 ], [ -55.96386621071786, 1.840558509078844 ], [ -55.925257653767297, 2.068615012376112 ], [ -56.112766359127448, 2.25609091609886 ], [ -55.968167786269333, 2.494542252159305 ], [ -55.351510341011355, 2.400615118402364 ], [ -54.969440647762546, 2.603377498818483 ], [ -54.315534236753336, 2.133497316705693 ], [ -53.764951405631528, 2.354433089806878 ], [ -52.940079449735464, 2.158900775299266 ], [ -52.556581019264932, 2.502568823604034 ], [ -52.331953535597805, 3.17143359317552 ], [ -51.495093668236372, 4.429754221990398 ], [ -51.047911964967135, 3.835004159695563 ], [ -50.988973377903498, 3.044747108598683 ], [ -50.663431090189498, 2.117722356443369 ], [ -50.455290617798838, 1.823166604684116 ], [ -50.114776188296148, 1.818767395134928 ], [ -49.883812391958401, 1.59585739382034 ], [ -49.897074727147682, 1.187501535328255 ], [ -50.298350708394793, 0.914244568602136 ], [ -50.697136687235101, 0.279422487282641 ], [ -50.3085343760699, -0.112075607378753 ], [ -48.47264239395934, -0.241742866995596 ], [ -47.879056816724635, -0.693907280255769 ], [ -47.811553854337255, -0.566780786672003 ], [ -47.651330531602866, -0.593284210855281 ], [ -47.685752131743989, -0.736427046643622 ], [ -47.554435830386232, -0.606182798721588 ], [ -47.383743394905309, -0.847384299625607 ], [ -47.437283100823194, -0.614641100632481 ], [ -47.141170992646074, -0.808112833971623 ], [ -47.096005222804955, -0.699182591862675 ], [ -47.084639197044467, -0.886111070302923 ], [ -46.974524440745746, -0.73359884297351 ], [ -46.944155387887982, -0.900167364987716 ], [ -46.838037397985048, -0.769331877309633 ], [ -46.701449778048513, -0.975662161115497 ], [ -46.428014261203337, -0.85800040023943 ], [ -46.545967024070215, -1.051956729079443 ], [ -46.32419849527011, -1.098276983641231 ], [ -46.213318138990715, -0.915897664809226 ], [ -46.292066313614328, -1.207797131388724 ], [ -46.074300943621587, -1.040081756772634 ], [ -46.150952571644623, -1.260132309808393 ], [ -46.131747460439357, -1.414344096038855 ], [ -46.02872094263666, -1.101596749911556 ], [ -45.897707579243864, -1.322148978814033 ], [ -45.621013450655013, -1.144443776113778 ], [ -45.705151576272129, -1.395781956559696 ], [ -45.419163623280859, -1.305056131989365 ], [ -45.516149135189551, -1.477572689597804 ], [ -45.302255204034068, -1.508243331395957 ], [ -45.370516817933385, -1.739860795374093 ], [ -45.184887988222215, -2.021263024934798 ], [ -45.23328250711203, -1.563393668257541 ], [ -45.076230009158479, -1.462539948953424 ], [ -44.981385611068255, -1.616602418956226 ], [ -44.825649489959012, -1.439160723571193 ], [ -44.899151018233106, -1.615399402168335 ], [ -44.455186595221328, -2.029269285248314 ], [ -44.731730489562075, -2.285455779248452 ], [ -44.687004845701146, -2.378047389607637 ], [ -44.501781906276356, -2.147884234168191 ], [ -44.355324718197075, -2.334280287864907 ], [ -44.524344027986594, -2.383533322929889 ], [ -44.650649962372441, -2.61185022043389 ], [ -44.545614517845358, -2.570999165682848 ], [ -44.671211471266247, -2.919214199559247 ], [ -44.634789701178121, -3.091384447008274 ], [ -44.88547417521891, -3.264110095862481 ], [ -44.790878520630848, -3.31605165582805 ], [ -44.434857989836296, -2.936030794092992 ], [ -44.301960357134448, -2.488455390329818 ], [ -44.017979277318815, -2.403589907058558 ], [ -44.293295128852094, -2.764574793895974 ], [ -44.21315416668611, -2.857740837839379 ], [ -43.932782567089419, -2.563280398705306 ], [ -43.633018386870788, -2.520193375972298 ], [ -44.040334829632862, -2.919459476636725 ], [ -43.968678739193003, -3.280590398429592 ], [ -44.113340866060852, -3.40047188276195 ], [ -44.165250692981743, -3.222461483215546 ], [ -44.314147883239109, -3.383193924173602 ], [ -44.368121246368823, -3.28747343714738 ], [ -44.670084179009464, -3.621522150700991 ], [ -44.592254706037039, -3.97654292186539 ], [ -44.908630136332548, -4.473817145803246 ], [ -45.216132990110147, -4.640658100943225 ], [ -45.623281056248615, -4.42235072667394 ], [ -45.592120618168259, -4.923557880363866 ], [ -46.165231557190403, -5.545608015330582 ], [ -46.555282618245243, -5.308625617929895 ], [ -46.732282051674119, -5.374477614160166 ], [ -46.736143051189437, -5.216097011227188 ], [ -47.141236257048099, -5.454432685093615 ], [ -47.458760535573958, -5.241520159404044 ], [ -47.823537677569767, -5.36746780424625 ], [ -48.14002397075113, -5.261714148169325 ], [ -48.090425635718745, -5.552045265022264 ], [ -47.879813465891807, -5.648319843692462 ], [ -47.874093366065054, -5.840398901949878 ], [ -48.152452222894041, -5.770329611194123 ], [ -47.927517572891915, -6.530341662893843 ], [ -48.44172446417479, -7.73461734993866 ], [ -48.286088610322608, -6.695791119116964 ], [ -48.673563117191321, -7.002801391126392 ], [ -48.716352226861666, -7.733825235443803 ], [ -48.495861697080308, -9.012959789032552 ], [ -48.765933537022789, -9.256130047255269 ], [ -48.77663698878591, -8.733236722570407 ], [ -49.192914837972758, -8.175031931298927 ], [ -50.057838914734873, -9.294099081676366 ], [ -50.462489452381078, -10.38809321876597 ], [ -51.25368212019125, -10.124163932281057 ], [ -51.398602041986074, -10.224824296231288 ], [ -51.091153535384841, -10.432195296691207 ], [ -51.286093044588121, -10.7498663627608 ], [ -51.176959467768583, -10.853391843420304 ], [ -51.459106079976209, -10.796113470184553 ], [ -51.602212322077015, -10.979468352279062 ], [ -51.816971912061085, -10.728407142414424 ], [ -51.894731294881787, -10.967647986760193 ], [ -51.186558132767729, -11.593048207022852 ], [ -51.515697362015935, -11.524193166977005 ], [ -51.47656982496953, -11.772170896129856 ], [ -51.721693886403422, -11.696151782174875 ], [ -51.618946166139047, -12.044544348429385 ], [ -51.836029472286008, -12.795617974782148 ], [ -51.734064335551068, -13.080967385253642 ], [ -51.955382510153143, -13.578234428336618 ], [ -52.604309744595412, -13.301862761027721 ], [ -53.950251922665935, -13.582353132084439 ], [ -54.048150636739628, -13.366948454375606 ], [ -54.297696533887034, -13.591988168675572 ], [ -54.598358555977612, -13.402587317010402 ], [ -54.524145395810159, -13.101209507797675 ], [ -55.066542737638912, -13.5084927813144 ], [ -54.613599200611461, -12.581005542334122 ], [ -54.710895803594603, -12.534477514048703 ], [ -55.142557240936583, -13.094291521168712 ], [ -55.612149592891157, -12.610535958022272 ], [ -55.557517082836881, -12.353020990100006 ], [ -55.877004465024484, -12.355027769290674 ], [ -55.897397988061847, -12.098105489563117 ], [ -56.085664714316643, -12.025767629336702 ], [ -56.349834326398422, -12.199908437934813 ], [ -56.51126747769959, -12.634694803880691 ], [ -56.427881424333258, -13.066659231058605 ], [ -57.069984282427903, -13.390157214833867 ], [ -57.250067878365549, -13.698226124246377 ], [ -57.408287781946555, -13.568290135283119 ], [ -57.287828117565745, -13.307132348643028 ], [ -57.506118127040608, -13.319652286745708 ], [ -57.542887783197251, -13.189415806104682 ], [ -57.458772482873151, -12.940437146104721 ], [ -57.659646803629151, -13.061778883588152 ], [ -57.999431662780545, -12.896742388070367 ], [ -58.0241569303899, -12.648190146895173 ], [ -57.84641576970904, -12.597875321982418 ], [ -57.914526443284437, -12.373473754295427 ], [ -58.288729193433156, -12.1621976151075 ], [ -58.546538224856917, -11.483308948053851 ], [ -59.554929697006777, -11.473550589954028 ], [ -59.993752334012143, -11.638329727168514 ], [ -60.092120387279074, -12.269074493687665 ], [ -59.81637800576744, -12.317169630283288 ], [ -60.059688893258816, -12.884783149149381 ], [ -59.842388452629592, -13.382720772750156 ], [ -59.708550890188086, -13.33132921094287 ], [ -59.440244527239791, -13.626923753705762 ], [ -59.818866774787359, -13.833350282925421 ], [ -58.993188442583246, -15.033854238352925 ], [ -58.299454204763094, -15.009591303767984 ], [ -57.996357100567231, -14.426594245066173 ], [ -57.476879801597285, -14.085367920089833 ], [ -56.988814690871102, -13.951383034228087 ], [ -56.659856490118962, -14.241133249234133 ], [ -56.758921937880309, -14.943411961219546 ], [ -56.927478612603551, -15.086868356645224 ], [ -57.086361101860042, -14.920925699798211 ], [ -56.999654857237296, -15.301390811032153 ], [ -57.231034192665938, -15.302225212198373 ], [ -57.510307108652697, -15.577025530058284 ], [ -57.546167369704484, -15.815493435896739 ], [ -57.411883005003617, -15.874718624644311 ], [ -57.726229681858108, -16.027883248288465 ], [ -57.930490583861562, -15.523856925295865 ], [ -58.287058513854276, -16.019767307361434 ], [ -58.762857108714549, -15.650587862793024 ], [ -58.762750210992365, -15.877078391983146 ], [ -59.188860171269582, -16.305809423428446 ], [ -60.153463001688621, -16.267004129235143 ], [ -60.219899287439645, -15.461010130402542 ], [ -60.535108524833319, -15.100588728296218 ], [ -60.234589564841635, -15.106116625891982 ], [ -60.461798863229198, -13.834306215874422 ], [ -61.000564024411752, -13.516601137696149 ], [ -61.785610073196594, -13.563846827280281 ], [ -62.077087324563621, -13.186561697886241 ], [ -62.770319455343937, -13.031731029381879 ], [ -63.063115189206286, -12.696109083878495 ], [ -63.290763923667896, -12.751638287299482 ], [ -63.644653639828739, -12.498948108927928 ], [ -64.359039254003719, -12.494835832250089 ], [ -64.500288665835839, -12.234285694594343 ], [ -64.978877478274228, -11.994747062974858 ], [ -65.378954909302962, -11.264551729026282 ], [ -65.288792984122779, -10.97350191687536 ], [ -65.429216564832743, -10.485421691966119 ], [ -65.276137212074588, -10.169403023024907 ], [ -65.416964069871781, -9.671229082052161 ], [ -66.532732483066013, -9.879284666037057 ], [ -68.553307300621597, -11.114045860588087 ], [ -69.402231843184353, -10.935830136336438 ], [ -70.325946901232527, -11.074270050291833 ], [ -70.590762466682278, -10.95030151420471 ], [ -70.602056688305481, -9.823803451041902 ], [ -70.462052156404198, -9.403716766410037 ], [ -71.398120058417064, -10.008368269280567 ], [ -72.178256075759037, -10.002463011624263 ], [ -72.250842740883158, -9.509702740709837 ], [ -73.200047904749979, -9.428080209895688 ], [ -72.971347589840363, -8.981104712210055 ], [ -73.539553892701235, -8.345036819081582 ], [ -73.702647878944092, -7.792892222036746 ], [ -73.980549418733276, -7.5797234576092 ], [ -73.952993019776173, -7.384013983962086 ], [ -73.739401303441838, -7.36241750006946 ], [ -73.674710708392567, -6.850527460309369 ], [ -73.087752106315051, -6.412810363839093 ] ] ], [ [ [ -49.724495269919686, 0.339258177050323 ], [ -49.604861794190526, 0.244829888859956 ], [ -49.966122857400748, -0.048494218011581 ], [ -50.37041575776604, 0.111983593120087 ], [ -49.724495269919686, 0.339258177050323 ] ] ], [ [ [ -49.593410597361334, 0.072960571837832 ], [ -49.369095954686827, -0.049913720927053 ], [ -49.823462844434189, -0.099949431834762 ], [ -49.80013560064701, -0.050202329754745 ], [ -49.593410597361334, 0.072960571837832 ] ] ], [ [ [ -50.26539468808015, 0.576609025426584 ], [ -50.026939297107376, 0.532130603291145 ], [ -50.280968950840837, 0.346529389830283 ], [ -50.26539468808015, 0.576609025426584 ] ] ], [ [ [ -50.375236121173899, 1.859269021202378 ], [ -50.537404576772786, 2.184431610412693 ], [ -50.411877063123363, 2.173558656686389 ], [ -50.375236121173899, 1.859269021202378 ] ] ], [ [ [ -50.401942059898687, 0.537926326617812 ], [ -50.292904051248961, 0.286312456387132 ], [ -50.432634914093867, 0.161028163836725 ], [ -50.519101262721676, 0.239445616590339 ], [ -50.401942059898687, 0.537926326617812 ] ] ], [ [ [ -50.265878150586282, 0.827385374154475 ], [ -49.997198147768593, 0.889556534749368 ], [ -50.268694510935802, 0.738276441114315 ], [ -50.265878150586282, 0.827385374154475 ] ] ], [ [ [ -44.490208082224363, -2.713633067324786 ], [ -44.494155132259074, -2.959686087835429 ], [ -44.581574290671071, -3.039294414134354 ], [ -44.490208082224363, -2.713633067324786 ] ] ], [ [ [ -43.65078644514977, -2.418601271991105 ], [ -43.730459468596038, -2.310596542127111 ], [ -43.61681368913866, -2.260126566748754 ], [ -43.65078644514977, -2.418601271991105 ] ] ], [ [ [ -45.001525411241815, -1.429529642342962 ], [ -44.894195196965242, -1.307474240672544 ], [ -44.864384279969919, -1.365962883900451 ], [ -45.001525411241815, -1.429529642342962 ] ] ], [ [ [ -44.777429272082088, -1.580255550432726 ], [ -44.647232294924549, -1.6684824390306 ], [ -44.786558252934917, -1.67157424481305 ], [ -44.777429272082088, -1.580255550432726 ] ] ], [ [ [ -45.389791359028671, -1.457579243983684 ], [ -45.348993578086294, -1.315281773697758 ], [ -45.303937507812726, -1.446519496824462 ], [ -45.389791359028671, -1.457579243983684 ] ] ], [ [ [ -50.058413961382534, 0.968895261430932 ], [ -49.945815931956787, 0.975408451674501 ], [ -50.060892751017967, 0.94373610919655 ], [ -50.058413961382534, 0.968895261430932 ] ] ], [ [ [ -50.228025184587494, 0.269158202951021 ], [ -50.068011106432209, 0.344968693357099 ], [ -50.221896092591678, 0.250456887728621 ], [ -50.228025184587494, 0.269158202951021 ] ] ], [ [ [ -44.50113015428321, -2.535427470166094 ], [ -44.485409004397162, -2.439327580802046 ], [ -44.432328090552772, -2.465503038775794 ], [ -44.50113015428321, -2.535427470166094 ] ] ], [ [ [ -44.600593977025284, -2.988975512881849 ], [ -44.595355931146301, -2.905909879020963 ], [ -44.578688398921912, -2.911266753158244 ], [ -44.600593977025284, -2.988975512881849 ] ] ], [ [ [ -45.331647736075702, -1.729193389028263 ], [ -45.323427774831913, -1.60937638215111 ], [ -45.303221332240661, -1.606570334036804 ], [ -45.331647736075702, -1.729193389028263 ] ] ], [ [ [ -48.931751666161368, -0.172448206326158 ], [ -48.864932266907978, -0.181191658682891 ], [ -48.915916193977324, -0.203164822665172 ], [ -48.931751666161368, -0.172448206326158 ] ] ], [ [ [ -43.838027475013142, -2.530542099083186 ], [ -43.824654152072199, -2.461128938277574 ], [ -43.798747280063999, -2.501548511579631 ], [ -43.838027475013142, -2.530542099083186 ] ] ], [ [ [ -45.986394687221498, -1.134379129641853 ], [ -45.974025478647278, -1.052896816413437 ], [ -45.967910490201412, -1.133220325032453 ], [ -45.986394687221498, -1.134379129641853 ] ] ], [ [ [ -45.106763522883512, -1.475063652280463 ], [ -45.112659131957216, -1.383269831445316 ], [ -45.104186365029534, -1.38016362491097 ], [ -45.106763522883512, -1.475063652280463 ] ] ], [ [ [ -45.885549068722888, -1.127146056954859 ], [ -45.853636797343583, -1.066259163763992 ], [ -45.862460728292255, -1.141138717831362 ], [ -45.885549068722888, -1.127146056954859 ] ] ], [ [ [ -44.740448679818641, -1.514634613564824 ], [ -44.788304303861082, -1.485088492005738 ], [ -44.782872705174363, -1.470249052318348 ], [ -44.740448679818641, -1.514634613564824 ] ] ], [ [ [ -45.593406170221911, -1.236957226851764 ], [ -45.538140158347808, -1.240128057156072 ], [ -45.595592319280492, -1.25524877236335 ], [ -45.593406170221911, -1.236957226851764 ] ] ], [ [ [ -46.63472787205459, -0.872180484428006 ], [ -46.653043555008864, -0.809773479129914 ], [ -46.616196267343689, -0.869363949022256 ], [ -46.63472787205459, -0.872180484428006 ] ] ], [ [ [ -49.661085701211654, 0.162485508389012 ], [ -49.606999372240011, 0.175952375220784 ], [ -49.614325089364549, 0.155999273087979 ], [ -49.661085701211654, 0.162485508389012 ] ] ], [ [ [ -45.292514207266358, -1.708532300806058 ], [ -45.258890385657693, -1.642728448879923 ], [ -45.247154837006789, -1.643034033380012 ], [ -45.292514207266358, -1.708532300806058 ] ] ], [ [ [ -43.766292198081018, -2.4773847357692 ], [ -43.783614629995292, -2.428865400990146 ], [ -43.756580035437288, -2.42118088664853 ], [ -43.766292198081018, -2.4773847357692 ] ] ], [ [ [ -50.238106588948959, 1.844685111176745 ], [ -50.19094822106036, 1.849871304581554 ], [ -50.196584738938121, 1.831544731031868 ], [ -50.238106588948959, 1.844685111176745 ] ] ] ] } },
{ "type": "Feature", "properties": { "objectid_1": 6, "objectid": 6, "name": "Mata Atlântica", "shape_leng": 195.30431324, "globalid": "{8EBB5792-159A-4E42-9CD6-385197F918A1}", "shape_Le_1": 22465971.380392138, "shape_Area": 1299609536903.6543 }, "geometry": { "type": "MultiPolygon", "coordinates": [ [ [ [ -55.623153707186603, -22.681447387672822 ], [ -55.458854174645936, -22.726167007955155 ], [ -55.547391837994596, -22.567699161953236 ], [ -55.116740745734155, -22.202416073750232 ], [ -54.748419367260176, -22.398353407911447 ], [ -55.073574199914034, -21.873846094847408 ], [ -54.607118885305844, -21.928471937149791 ], [ -54.475858118697282, -21.577795486055066 ], [ -53.245321446962187, -22.199026089336652 ], [ -52.502503167694634, -22.034849842921702 ], [ -51.686121663859268, -20.755500206309915 ], [ -52.009265998635314, -20.663664109944143 ], [ -51.877596676438905, -20.61538509486093 ], [ -52.01043295061357, -20.451582826617667 ], [ -51.690858692354837, -20.687336848039337 ], [ -51.415994261319824, -20.371901175858781 ], [ -51.550300641033367, -20.214960295372254 ], [ -51.388059874647375, -20.31685958913792 ], [ -51.19698755165679, -20.196262394183172 ], [ -51.259125661979681, -20.092870240930772 ], [ -51.116133932619725, -20.169722764202955 ], [ -51.129466454978768, -19.642804630583431 ], [ -50.797494271701126, -19.084053395977005 ], [ -51.17151586938629, -18.544173829936788 ], [ -50.664106734674256, -18.841023508151405 ], [ -50.979292096644315, -18.551374153625883 ], [ -50.542160531873066, -18.660836997727984 ], [ -50.677130690224793, -18.447140197690302 ], [ -50.183294735638093, -18.0736473286094 ], [ -50.052826071107717, -18.434457174277778 ], [ -49.846753638180402, -18.505144247131707 ], [ -49.587546228998264, -18.053990217381031 ], [ -49.463039255410514, -18.327386633878568 ], [ -49.600772133909516, -18.517597360246722 ], [ -49.38549009363765, -18.604608424887502 ], [ -49.169233738812011, -18.37400778735136 ], [ -49.174236580596776, -17.987874722082505 ], [ -49.054834815413685, -18.270091940029829 ], [ -48.824626109666092, -17.933683460027563 ], [ -48.445133088282716, -18.233635322823179 ], [ -48.275896529924871, -18.142453787693871 ], [ -48.334079835955521, -18.340321294233654 ], [ -48.251116515388851, -18.318460245052144 ], [ -47.994138286364034, -18.455188546409417 ], [ -47.603415369918324, -18.28322937711625 ], [ -47.751276346308934, -18.392686793259578 ], [ -47.655646456842689, -18.454272298238756 ], [ -47.837714370157506, -18.4231447860986 ], [ -47.746987676853145, -18.586973014312083 ], [ -48.244032498076336, -18.350304927347317 ], [ -48.467842910093637, -18.446941950243346 ], [ -47.953473351879147, -18.780894946150088 ], [ -47.980229564818814, -18.985485746214785 ], [ -48.327792671910728, -18.607203506392523 ], [ -48.478016293855383, -18.693414992074896 ], [ -48.644126999790409, -18.501163575698961 ], [ -48.863635805713521, -18.623092512612871 ], [ -48.851540054193244, -18.415405326653541 ], [ -49.325678506712904, -18.830258056575133 ], [ -49.145047809817783, -18.949972547632605 ], [ -49.670912762871779, -18.887396248318108 ], [ -49.408769252404305, -18.803928573744347 ], [ -49.678387894082597, -18.60599174774789 ], [ -49.803615901331455, -18.742225789205019 ], [ -49.70342252261117, -18.976963131747326 ], [ -49.844811921608951, -18.821247222856368 ], [ -49.841230004397872, -19.024114186407747 ], [ -50.104869797311601, -18.701228705341098 ], [ -50.352556010242658, -19.010139451709499 ], [ -50.25888630311686, -19.071062971289496 ], [ -50.541976323340911, -19.177302895203983 ], [ -50.588404784908327, -19.540893760298541 ], [ -50.899768934645309, -19.724223285161521 ], [ -50.333334527241334, -19.673898326118177 ], [ -49.8712103445541, -19.839009972851432 ], [ -49.697068132243764, -19.804545182249282 ], [ -49.781738303054233, -19.546561303631943 ], [ -49.658990359251867, -19.510024290072117 ], [ -49.474440487943603, -19.619547603623015 ], [ -49.515535851095194, -19.848804889386681 ], [ -49.267748502236188, -19.763710868352188 ], [ -49.35150255225529, -20.066179439077434 ], [ -49.198696826332686, -20.477804692319385 ], [ -49.284270192974212, -20.545729331841279 ], [ -49.375775748087797, -20.305515838711969 ], [ -49.801373011086262, -20.087111466038131 ], [ -50.381996320081001, -20.559374414410147 ], [ -50.260722864697776, -20.669787523744318 ], [ -50.154892781250155, -20.517000852742829 ], [ -49.414875380766532, -20.831570745869517 ], [ -49.312081116092337, -20.657726700212439 ], [ -49.12353109173965, -20.892522854710091 ], [ -48.956535724912811, -20.612246447690829 ], [ -49.129878319839278, -20.488281174676075 ], [ -49.028770531618243, -20.188882752217431 ], [ -49.016439565223969, -20.412072964806651 ], [ -48.741655862190285, -20.476922851047739 ], [ -48.463663463199993, -21.081076167221383 ], [ -48.575912548341826, -21.538455747748884 ], [ -48.958371402551499, -21.234314222927004 ], [ -49.155764164083308, -21.674378013107617 ], [ -48.354459170102956, -22.339729606738707 ], [ -48.6507647583243, -22.699919196249454 ], [ -49.052862912753731, -21.900704684719638 ], [ -49.419062271998939, -22.173714724595474 ], [ -49.211652456022712, -22.451274172348846 ], [ -49.426235253965615, -22.476486057193839 ], [ -49.492034837199455, -22.339863854131501 ], [ -49.621644197583564, -22.553572640926621 ], [ -51.022809740010075, -22.29519325785164 ], [ -51.023803438411051, -22.038589512006581 ], [ -51.353455117901277, -22.273638543334407 ], [ -51.279665087588867, -22.570783263205005 ], [ -50.944777054645641, -22.49355339133378 ], [ -50.511153652705701, -22.71878607482083 ], [ -49.512788872126642, -22.712986300322886 ], [ -49.260701839568135, -22.967340292754916 ], [ -49.3004413871395, -23.864680195131861 ], [ -49.688732072732641, -23.924208566936517 ], [ -49.567554358894107, -24.062883641920486 ], [ -49.661244157739567, -24.217101016684335 ], [ -49.962339693311534, -24.074729815605416 ], [ -50.305393243304124, -24.278170989747668 ], [ -50.191140278173158, -24.407695980057142 ], [ -50.459068118908505, -24.414829705881235 ], [ -50.446062986656429, -24.561149737963774 ], [ -50.148484518016858, -24.685020100682991 ], [ -49.972169572986708, -24.44916607127621 ], [ -49.438720853657969, -24.256597798398808 ], [ -49.207475857686823, -24.373299878983033 ], [ -48.864706687363729, -24.128712118858672 ], [ -48.834202521599025, -23.93195863572787 ], [ -48.353637235872512, -23.921645809617608 ], [ -48.858059042870138, -23.677426073591146 ], [ -47.911267838123017, -23.633465121822606 ], [ -47.926029623218255, -23.467048728050823 ], [ -48.470734270786252, -23.565626594938148 ], [ -48.693742307591791, -23.393808339628738 ], [ -48.329876672640026, -23.454829064796968 ], [ -48.31613697091214, -23.193312536597315 ], [ -48.650973663340253, -23.171695940378982 ], [ -48.3471360023972, -22.957574763902503 ], [ -48.164276022038479, -22.958421904631525 ], [ -48.200558151710652, -23.109785683363636 ], [ -47.922094317757555, -22.856069887346152 ], [ -47.658465468120617, -22.867095587592395 ], [ -47.797354543967288, -22.638004885011178 ], [ -47.41922172912922, -22.156516487092428 ], [ -47.634526756390898, -21.731120961345656 ], [ -47.519308643115316, -21.593678824197852 ], [ -47.470483384741705, -21.732258217327054 ], [ -47.235966555622532, -21.71302108768926 ], [ -47.376321110684358, -21.301841569092854 ], [ -47.29392026484296, -21.131457028345569 ], [ -47.271539682770175, -21.331668446270001 ], [ -47.072159103126509, -21.28507822287861 ], [ -47.203585358275021, -21.409881317803229 ], [ -47.132506224301146, -21.617044899927311 ], [ -47.309911987292573, -22.330076156713332 ], [ -47.167614143607537, -22.419731126238119 ], [ -47.500334538176922, -22.707702527638343 ], [ -47.097827168796215, -22.809678692367793 ], [ -46.773278761841205, -22.492726637043429 ], [ -46.953532724170799, -21.391979618102873 ], [ -46.771599642590218, -21.023957088231768 ], [ -46.914738623791557, -20.559756291214825 ], [ -46.486579240736958, -20.895501529302358 ], [ -45.600906607872574, -21.098035814598202 ], [ -45.757287501065207, -21.213304155845425 ], [ -45.500246789720798, -21.057423581624342 ], [ -45.350571677291988, -21.151997892724321 ], [ -45.452427588769858, -20.977414998634671 ], [ -45.258799439320015, -20.719919281129702 ], [ -45.521510561079552, -20.203909601114209 ], [ -45.022201352028084, -20.025253616299793 ], [ -44.985944571016631, -20.503649748394931 ], [ -44.619146409176054, -20.294468054160596 ], [ -44.599066270612092, -20.003332450708637 ], [ -45.023682764661437, -19.584836539644531 ], [ -44.77951346325424, -19.657198237926192 ], [ -44.740446355876998, -19.542473857751975 ], [ -44.365844971134415, -19.89587179800451 ], [ -43.429763630324892, -19.839391442663757 ], [ -43.292452171288623, -19.307125650746865 ], [ -43.661739923209275, -18.914042744375219 ], [ -43.69802787935437, -18.585986043329687 ], [ -43.204723333055469, -18.154994813264288 ], [ -43.131508908142798, -17.824479301417089 ], [ -42.832457185369279, -18.006132085982319 ], [ -42.634600666775398, -17.571144644336513 ], [ -42.475836034687561, -17.76172736981049 ], [ -42.257450994235427, -17.699716469688823 ], [ -42.374487178170142, -17.267253418606145 ], [ -42.250971357157866, -16.85541348035288 ], [ -42.384889251443624, -16.769540530227619 ], [ -42.121397720077667, -16.663634872700374 ], [ -42.306352241997232, -16.599994171749358 ], [ -42.423735914046787, -15.910121312799951 ], [ -42.2808191212495, -15.763047991399905 ], [ -42.041063787212245, -16.021577124801414 ], [ -41.774485502596207, -15.872178944101053 ], [ -42.096982405377325, -15.799260743634997 ], [ -41.973250904255217, -15.664702972425205 ], [ -42.300190648954427, -15.292353527164783 ], [ -42.36219316217845, -15.55875300694402 ], [ -42.461379665110833, -15.5163947231876 ], [ -42.63106225497355, -15.039934863145691 ], [ -42.696594195948265, -15.637779376886281 ], [ -42.508084549969276, -15.83970902623445 ], [ -42.667973774876472, -16.123293358909208 ], [ -42.749414725921028, -15.062935129189361 ], [ -42.642387241200275, -14.927022495912668 ], [ -42.285095518820214, -15.139904223918217 ], [ -41.407556567609845, -15.038437934712283 ], [ -40.9539953462981, -14.656947337088479 ], [ -40.997286191105765, -14.415240183392724 ], [ -40.844589824289223, -14.597980459775053 ], [ -40.549881820630425, -14.565868167183844 ], [ -40.193781958714823, -14.094537889698442 ], [ -40.123755339436833, -13.713900847133981 ], [ -40.612890531414287, -13.380112664591071 ], [ -39.590714924167656, -12.825735583120975 ], [ -39.476475084321308, -12.540327909586427 ], [ -39.12543853428383, -12.469390351119014 ], [ -39.508433040422695, -11.913495971180012 ], [ -39.076736775397166, -11.949988411950631 ], [ -38.867945025323841, -12.417395163334378 ], [ -38.635440968616777, -11.799594481226494 ], [ -38.504866278628363, -12.093809779740962 ], [ -38.342402509964664, -12.015652460742437 ], [ -38.317102229843627, -11.735342065890048 ], [ -37.881923038358075, -11.729521535003164 ], [ -37.756179738597616, -11.026624801733561 ], [ -37.485218687796412, -10.749037508932274 ], [ -37.541127834125142, -10.513409160100377 ], [ -37.303338052557073, -10.649187896341312 ], [ -37.406751433430145, -10.130191442896759 ], [ -37.015540395815236, -9.855447591960324 ], [ -36.954864723910276, -10.072834948572892 ], [ -36.624834076642699, -10.241932838998208 ], [ -36.290942206179309, -10.074114270960065 ], [ -36.824153227690601, -10.018275728761934 ], [ -36.649822506612843, -9.9048434821435 ], [ -36.386104869289859, -9.085931863342157 ], [ -36.516025223730374, -8.995154118048776 ], [ -36.625206062713652, -9.143204500938207 ], [ -36.696901314309997, -9.006136018622232 ], [ -36.574362059927921, -8.76637787397441 ], [ -35.749767157940219, -8.360576315981803 ], [ -35.802179637178341, -8.186880169318737 ], [ -36.080927041418832, -8.173602247856314 ], [ -35.572519107671638, -8.046004465012258 ], [ -35.434408780446446, -7.709556231314224 ], [ -35.172107347948653, -7.562275249174748 ], [ -35.481016086705459, -7.587400355278977 ], [ -35.576249561314931, -7.433329165187289 ], [ -35.251429328646509, -7.122782096594301 ], [ -35.365922526640638, -6.944706315056517 ], [ -35.190204783408014, -6.833716849700072 ], [ -35.368405400915677, -6.315285099154102 ], [ -35.268570680860776, -5.801577397811095 ], [ -35.542203983375323, -5.154059558352079 ], [ -35.410521515233036, -5.255271683201091 ], [ -34.82325004970501, -7.200115536961529 ], [ -34.917518179438794, -7.771575501220379 ], [ -34.834457405138537, -7.896613781084255 ], [ -35.172488082712164, -8.986589227943082 ], [ -36.452624595056044, -10.48939329331912 ], [ -36.632381715371672, -10.529146463862503 ], [ -36.538722636213983, -10.523699463611146 ], [ -36.834198762322785, -10.643682650736325 ], [ -37.038210348597232, -10.810110400952667 ], [ -37.160050732552882, -10.714299107612526 ], [ -37.048766011326428, -10.931632559756284 ], [ -37.298095819630561, -10.999117231239909 ], [ -37.163533932100748, -11.115608354113368 ], [ -37.35867842427546, -11.361699643608057 ], [ -37.327409086128156, -11.187641593092911 ], [ -37.425129931080654, -11.241874617940695 ], [ -37.62520416373556, -12.04785906266291 ], [ -38.260584880050118, -12.892775993011249 ], [ -38.553592114161262, -13.04290434315822 ], [ -38.484219101897487, -12.778706917150203 ], [ -38.690833588148706, -12.649119388704088 ], [ -38.791815696671598, -12.844195830647108 ], [ -38.954837741334934, -12.734346547198673 ], [ -38.731522181563236, -12.906135424368671 ], [ -39.072654307926634, -13.359415420127334 ], [ -39.096181752054669, -13.547868653319728 ], [ -38.985318541919085, -13.830307309376911 ], [ -39.138916286376556, -13.72550038596788 ], [ -39.04381684310242, -14.147233196007086 ], [ -38.93807519520125, -13.900679590770707 ], [ -39.092120508181026, -14.691058649861549 ], [ -38.931406506773833, -15.889090272377203 ], [ -39.250933039338143, -17.213211557180006 ], [ -39.166288846009074, -17.647718325208448 ], [ -39.708580526197451, -18.366699184379375 ], [ -39.787579537397853, -19.580991028405069 ], [ -40.981719814654966, -21.21755111802144 ], [ -41.095354729887298, -21.57089744261236 ], [ -41.006319831960866, -21.988754667933332 ], [ -41.843530370168175, -22.372257632363237 ], [ -42.022389632442156, -22.590465707231324 ], [ -41.895061465568645, -22.725200740018629 ], [ -42.024924925210655, -22.977714532842434 ], [ -43.072103184555004, -22.94847160873638 ], [ -43.097524482117855, -22.637582171973087 ], [ -43.29282378366041, -22.739717645973588 ], [ -43.211410481861982, -22.92909774475806 ], [ -43.612534781675059, -23.042327653616855 ], [ -44.019090540935998, -23.081796012789916 ], [ -43.612160636952481, -23.009089051265946 ], [ -43.893849991409127, -22.892901866296221 ], [ -44.192987559886149, -23.01618156931324 ], [ -44.440735892217418, -22.91772986758831 ], [ -44.689991416135754, -23.023666192964903 ], [ -44.611560818422966, -23.325981273257753 ], [ -45.408855185002693, -23.515853517725834 ], [ -45.441415502824576, -23.815300426404118 ], [ -46.109184817706243, -23.781945947400313 ], [ -48.00862828527174, -24.979939417785125 ], [ -47.868858227134361, -24.93459073039995 ], [ -48.238770335126915, -25.470279066370349 ], [ -48.180088817151507, -25.286943032780879 ], [ -48.345482565980191, -25.248558791997059 ], [ -48.483666994334847, -25.476254204945658 ], [ -48.732921534597942, -25.416462859740211 ], [ -48.391170203102462, -25.601019902817296 ], [ -48.73952677861012, -25.879328423904489 ], [ -48.599825349963801, -25.88308331802854 ], [ -48.625866536276654, -26.21193928232973 ], [ -48.838191292988789, -26.078035809756443 ], [ -48.790931977818467, -26.320790597186313 ], [ -48.633764514373176, -26.490326170121435 ], [ -48.621852641703342, -27.130623133644363 ], [ -48.50301150880086, -27.147705665620986 ], [ -48.628261513994417, -27.214516078186925 ], [ -48.781063456213033, -28.493756769176834 ], [ -50.364772027314878, -29.951732085737493 ], [ -50.543838468042821, -29.817988268272622 ], [ -50.87898728191302, -29.934235081087682 ], [ -51.092080674911493, -29.623056999861458 ], [ -51.794177363847503, -29.602680314752384 ], [ -51.83588895780926, -29.818403238647353 ], [ -52.163469432173088, -29.656521799735842 ], [ -52.113209513086773, -29.817589547235066 ], [ -52.38569630927892, -29.762332301084999 ], [ -52.414858492620453, -29.898808007895362 ], [ -55.12516050038198, -29.392713270164318 ], [ -55.075565598710604, -29.25936663006965 ], [ -54.957267351870307, -29.37209950262196 ], [ -54.404752494303985, -29.237250956643951 ], [ -54.005867488780019, -29.519778545674495 ], [ -53.674468386636178, -29.544244382124194 ], [ -53.226813431112333, -29.017348240850549 ], [ -53.790300236100407, -28.541241861701451 ], [ -54.106485299912492, -28.625422674866996 ], [ -54.269079403344136, -28.398490284320516 ], [ -54.557984000111688, -28.470720972862082 ], [ -54.712063442784057, -28.196014577132008 ], [ -54.845325849881739, -28.358326267922521 ], [ -54.980641909923499, -28.162957804754242 ], [ -55.44536740077281, -28.083448350250627 ], [ -54.8239683923237, -27.506360957043256 ], [ -54.298902080184845, -27.413361051017688 ], [ -53.769316826246879, -27.035794145761265 ], [ -53.675240888373182, -26.250526084134464 ], [ -53.895157395586295, -25.627090150071293 ], [ -54.139756329752871, -25.499093344833263 ], [ -54.579995989948671, -25.585780342764476 ], [ -54.29870926758889, -24.599039048744984 ], [ -54.308312628980332, -24.048246069823684 ], [ -54.624148232875541, -23.811170940298684 ], [ -55.012505333612594, -23.985136085074938 ], [ -55.445406964374563, -23.939268470390239 ], [ -55.623153707186603, -22.681447387672822 ] ] ], [ [ [ -48.587460270944938, -27.827602275300251 ], [ -48.53844959221184, -27.433087194787149 ], [ -48.429408893107833, -27.404925861961441 ], [ -48.587460270944938, -27.827602275300251 ] ] ], [ [ [ -45.443628937311601, -23.917112064806691 ], [ -45.314852652962422, -23.708414900404872 ], [ -45.233127154263428, -23.906205614760569 ], [ -45.443628937311601, -23.917112064806691 ] ] ], [ [ [ -48.570299480984545, -26.174500975944909 ], [ -48.621296907935971, -26.438227182305866 ], [ -48.729238782394553, -26.321909560208827 ], [ -48.570299480984545, -26.174500975944909 ] ] ], [ [ [ -44.322893202617252, -23.143595618859578 ], [ -44.228596028553703, -23.03732829621859 ], [ -44.110182758729465, -23.128161371678175 ], [ -44.322893202617252, -23.143595618859578 ] ] ], [ [ [ -47.850358064356712, -24.936019013604451 ], [ -47.471954434409945, -24.716201335951602 ], [ -47.90407218986509, -25.047282395193246 ], [ -47.850358064356712, -24.936019013604451 ] ] ], [ [ [ -38.942762573811073, -13.545028359363554 ], [ -39.028008580888319, -13.410392519332623 ], [ -38.923660033143243, -13.384547167055835 ], [ -38.942762573811073, -13.545028359363554 ] ] ], [ [ [ -38.779815230351808, -13.075414256100307 ], [ -38.655212869155619, -12.926838631242363 ], [ -38.795142125829351, -13.137813542711983 ], [ -38.779815230351808, -13.075414256100307 ] ] ], [ [ [ -48.299760809046788, -25.489405901111432 ], [ -48.327142878244899, -25.38076900788688 ], [ -48.299373568683997, -25.377114190399084 ], [ -48.299760809046788, -25.489405901111432 ] ] ], [ [ [ -37.041769490820904, -10.871636606843147 ], [ -36.934408186750673, -10.730059960148674 ], [ -36.902085098723958, -10.726062125127608 ], [ -37.041769490820904, -10.871636606843147 ] ] ], [ [ [ -38.942609276307834, -13.657633283194739 ], [ -38.967679911109627, -13.575140011897579 ], [ -38.901339330072339, -13.653132848341762 ], [ -38.942609276307834, -13.657633283194739 ] ] ], [ [ [ -48.403378627613897, -25.515666494180408 ], [ -48.315872041565193, -25.534834780360015 ], [ -48.328255394113576, -25.581899502717103 ], [ -48.403378627613897, -25.515666494180408 ] ] ], [ [ [ -39.064709116175415, -13.506138123895925 ], [ -39.004695812553628, -13.550109560749826 ], [ -39.063287377728074, -13.551815434967402 ], [ -39.064709116175415, -13.506138123895925 ] ] ], [ [ [ -43.263948956106901, -22.775126866368986 ], [ -43.196395022411998, -22.740986080798482 ], [ -43.19026259137825, -22.795509934369711 ], [ -43.263948956106901, -22.775126866368986 ] ] ], [ [ [ -34.876528675556905, -7.798170241111142 ], [ -34.869160610053257, -7.721383222556629 ], [ -34.849064018844849, -7.706732585712201 ], [ -34.876528675556905, -7.798170241111142 ] ] ], [ [ [ -38.854567078754116, -13.108496939895813 ], [ -38.806942663099498, -13.089221868265147 ], [ -38.823210867230642, -13.120665804915456 ], [ -38.854567078754116, -13.108496939895813 ] ] ], [ [ [ -34.885175810871139, -7.664083093633719 ], [ -34.885500496150804, -7.6401226115714 ], [ -34.875093704925426, -7.659156690900875 ], [ -34.885175810871139, -7.664083093633719 ] ] ] ] } }
]
}
